{
  "norad_id": 68469,
  "name": "TRANSPORTER-16 OBJECT BF",
  "history": [
    {
      "epoch": "2026-04-14T03:24:51.670080Z",
      "apogee_km": 515.27495437573,
      "perigee_km": 512.8323620064666,
      "latitude_deg": 6.925802908004448e-05,
      "longitude_deg": 170.01776306416474,
      "height_km": 516.2499288250311,
      "semi_major_axis_km": 6892.190658191098,
      "eccentricity": 0.0001772,
      "inclination_deg": 97.4489,
      "raan_deg": 63.556,
      "arg_perigee_deg": 316.8236,
      "mean_anomaly_deg": 43.2859,
      "mean_motion_rev_day": 15.17283859
    }
  ]
}