{"fetched_at":"2026-04-16T17:13:58Z","count":4884,"tles":[{"name":"TRANSPORTER-16 OBJECT BF","line1":"1 68469U 26067BF  26104.14226470  .00002043  00000+0  10590-3 0  9999","line2":"2 68469  97.4489  63.5560 0001772 316.8236  43.2859 15.17283859  2223","category":"Other"}]}